[{"OBJECT_NAME":"STARLINK-3241","OBJECT_ID":"2021-115X","EPOCH":"2026-03-09T11:48:35.673120","MEAN_MOTION":15.0884229,"ECCENTRICITY":5.082e-5,"INCLINATION":53.2169,"RA_OF_ASC_NODE":149.9793,"ARG_OF_PERICENTER":60.3093,"MEAN_ANOMALY":299.7949,"EPHEMERIS_TYPE":0,"CLASSIFICATION_TYPE":"U","NORAD_CAT_ID":49745,"ELEMENT_SET_NO":999,"REV_AT_EPOCH":23550,"BSTAR":-1.3707065e-5,"MEAN_MOTION_DOT":-5.06e-6,"MEAN_MOTION_DDOT":0},{"OBJECT_NAME":"SL-24 PLAT","OBJECT_ID":"2014-033AR","EPOCH":"2026-03-09T22:47:27.152448","MEAN_MOTION":15.0919716,"ECCENTRICITY":0.00052059,"INCLINATION":98.0981,"RA_OF_ASC_NODE":61.9435,"ARG_OF_PERICENTER":212.2329,"MEAN_ANOMALY":147.8581,"EPHEMERIS_TYPE":0,"CLASSIFICATION_TYPE":"U","NORAD_CAT_ID":40049,"ELEMENT_SET_NO":999,"REV_AT_EPOCH":63724,"BSTAR":0.00046923352,"MEAN_MOTION_DOT":7.393e-5,"MEAN_MOTION_DDOT":0}]
